address,city,country,zipCode
898 Random St,New York,Mexico,24510
8405 Random St,Los Angeles,Germany,14925
4850 Random St,Phoenix,Germany,18456
7287 Random St,Chicago,Germany,59910
8111 Random St,Houston,UK,21755
8506 Random St,Los Angeles,Mexico,12221
5029 Random St,Los Angeles,Mexico,27043
3437 Random St,Houston,Mexico,70918
9174 Random St,Los Angeles,Mexico,37748
9418 Random St,Phoenix,Mexico,56734
2925 Random St,Chicago,USA,96133
943 Random St,New York,Mexico,42811
8713 Random St,Phoenix,Mexico,76634
144 Random St,Los Angeles,Mexico,15341
35 Random St,New York,Mexico,52687
720 Random St,Los Angeles,Canada,90886
3996 Random St,Los Angeles,Mexico,15099
6401 Random St,Los Angeles,Germany,35395
2848 Random St,Los Angeles,Canada,83799
9212 Random St,Los Angeles,Mexico,21789
272 Random St,Chicago,Mexico,14903
6427 Random St,Chicago,UK,24426
771 Random St,New York,UK,33547
8032 Random St,Chicago,Mexico,80908
3501 Random St,Chicago,Germany,60602
5719 Random St,Houston,Canada,33759
4911 Random St,Los Angeles,USA,99117
2598 Random St,Los Angeles,Germany,55818
7117 Random St,Los Angeles,UK,15525
231 Random St,Los Angeles,UK,73216
1642 Random St,New York,USA,32725
3943 Random St,New York,USA,95936
8786 Random St,Los Angeles,USA,67347
5226 Random St,Houston,Germany,96126
9715 Random St,Los Angeles,USA,98091
8641 Random St,Los Angeles,Germany,37260
3316 Random St,Houston,Mexico,35145
725 Random St,Houston,Canada,57724
9809 Random St,Chicago,Canada,66146
6687 Random St,Los Angeles,Mexico,35466
9165 Random St,New York,USA,39980
7978 Random St,Chicago,Canada,81040
3533 Random St,Houston,USA,98570
5406 Random St,Phoenix,Mexico,56252
8659 Random St,Chicago,Germany,36777
2184 Random St,New York,Canada,51459
4882 Random St,Los Angeles,Germany,44865
1831 Random St,Los Angeles,USA,71047
9900 Random St,Los Angeles,UK,44484
1625 Random St,Phoenix,UK,87636
1977 Random St,New York,Canada,45633
6210 Random St,Houston,Canada,78278
120 Random St,Phoenix,USA,67320
7758 Random St,Phoenix,USA,71867
9447 Random St,Houston,Germany,25032
6042 Random St,Chicago,UK,23817
7018 Random St,New York,UK,82482
9216 Random St,Phoenix,Germany,86937
7556 Random St,Houston,USA,17235
4801 Random St,Los Angeles,USA,93368
6909 Random St,Houston,USA,57324
23 Random St,Los Angeles,USA,67561
9092 Random St,New York,Mexico,40763
9556 Random St,New York,Canada,88283
6752 Random St,Los Angeles,UK,69184
4179 Random St,Los Angeles,Canada,81166
4862 Random St,Houston,UK,89104
4642 Random St,New York,USA,40054
2399 Random St,Chicago,USA,81715
288 Random St,New York,USA,15793
4114 Random St,Phoenix,UK,76404
614 Random St,New York,USA,55045
7714 Random St,Phoenix,Mexico,67333
4411 Random St,New York,USA,62502
7581 Random St,Phoenix,Germany,89320
2135 Random St,Houston,Germany,95634
6330 Random St,Chicago,Germany,49613
9054 Random St,Phoenix,Mexico,35524
1203 Random St,Phoenix,Mexico,47940
8722 Random St,Chicago,Canada,72183
5796 Random St,Houston,Germany,20424
8386 Random St,New York,Germany,42873
242 Random St,Houston,UK,21861
1961 Random St,Los Angeles,Canada,51089
5096 Random St,Chicago,Canada,32015
8358 Random St,Phoenix,UK,19443
2959 Random St,Phoenix,Mexico,88966
9005 Random St,Phoenix,UK,93124
9105 Random St,Chicago,USA,61307
405 Random St,Phoenix,Mexico,95156
3350 Random St,Phoenix,Mexico,68962
3559 Random St,Houston,UK,94271
5238 Random St,Phoenix,Germany,92442
8960 Random St,New York,Canada,21333
8153 Random St,Los Angeles,Mexico,38339
5418 Random St,Chicago,UK,35223
7186 Random St,Houston,Germany,83435
9868 Random St,Los Angeles,Mexico,61455
8209 Random St,Chicago,UK,52216
7431 Random St,Houston,Canada,28877
5078 Random St,Los Angeles,Mexico,17716
4758 Random St,Phoenix,Mexico,28831
1562 Random St,Chicago,UK,59803
9676 Random St,Los Angeles,UK,79915
4724 Random St,Phoenix,UK,74909
7770 Random St,New York,USA,98500
3428 Random St,Phoenix,UK,32931
3405 Random St,Houston,UK,10295
5157 Random St,Phoenix,Mexico,50377
5851 Random St,Los Angeles,Canada,85105
1649 Random St,Phoenix,Mexico,94837
3377 Random St,Houston,Germany,82374
1917 Random St,Houston,Mexico,52383
8039 Random St,Chicago,Mexico,41582
2364 Random St,Los Angeles,Canada,96315
9600 Random St,Chicago,Canada,46795
7621 Random St,New York,Canada,18444
7802 Random St,Los Angeles,Germany,34764
9277 Random St,Phoenix,UK,13698
3800 Random St,Chicago,Mexico,92645
3947 Random St,New York,Canada,64623
2055 Random St,Phoenix,Canada,51287
6042 Random St,Chicago,Canada,19970
608 Random St,Chicago,Canada,17364
8963 Random St,Chicago,Canada,88754
8020 Random St,Chicago,Germany,62268
9850 Random St,Chicago,Canada,65023
5718 Random St,New York,USA,59672
4122 Random St,Phoenix,USA,71919
8806 Random St,Chicago,Mexico,86731
1117 Random St,Chicago,Canada,53166
4504 Random St,Chicago,USA,62479
1218 Random St,Chicago,UK,37481
8982 Random St,New York,Germany,62109
4501 Random St,Chicago,USA,63387
7829 Random St,Houston,Canada,49390
2954 Random St,Los Angeles,Canada,48091
2465 Random St,Phoenix,UK,27055
6471 Random St,Chicago,USA,12204
5422 Random St,New York,Mexico,18358
3651 Random St,New York,Germany,19549
7639 Random St,Phoenix,USA,16812
9396 Random St,Houston,Germany,64339
5566 Random St,Houston,UK,70906
2651 Random St,Phoenix,UK,15602
738 Random St,Chicago,Germany,36111
9394 Random St,Houston,UK,31591
7046 Random St,Chicago,USA,51211
9659 Random St,Houston,Canada,65797
5495 Random St,Houston,USA,73589
1542 Random St,Chicago,USA,21200
9324 Random St,New York,UK,55730
3127 Random St,New York,Canada,98142
3109 Random St,New York,Germany,71804
9609 Random St,Los Angeles,USA,90629
8105 Random St,Houston,Canada,35087
240 Random St,Los Angeles,Mexico,86784
7414 Random St,Houston,Mexico,13576
7902 Random St,Chicago,USA,78802
7152 Random St,Houston,USA,25007
2997 Random St,Houston,Canada,13446
2820 Random St,Phoenix,Canada,60473
4201 Random St,Chicago,Canada,87418
9318 Random St,Chicago,UK,86140
9250 Random St,Phoenix,USA,77382
4056 Random St,Houston,USA,95496
163 Random St,Chicago,UK,61193
523 Random St,New York,UK,24452
9374 Random St,Los Angeles,Germany,20781
2361 Random St,Los Angeles,USA,41106
1495 Random St,New York,Mexico,70378
6905 Random St,Houston,Germany,33952
8399 Random St,Los Angeles,Germany,60360
3732 Random St,New York,UK,36449
8356 Random St,New York,Germany,17808
4624 Random St,Phoenix,Germany,41168
8070 Random St,Chicago,UK,29346
2984 Random St,Houston,USA,55097
8463 Random St,Houston,Canada,72699
6144 Random St,New York,Canada,28210
733 Random St,Phoenix,Mexico,98906
3860 Random St,Chicago,Mexico,53657
4569 Random St,Chicago,Germany,29547
1858 Random St,Phoenix,Mexico,42596
4249 Random St,New York,UK,77281
7252 Random St,Phoenix,UK,13908
1739 Random St,New York,Mexico,21374
5878 Random St,Los Angeles,USA,91314
113 Random St,Chicago,USA,42797
416 Random St,New York,Mexico,37271
9116 Random St,New York,USA,20576
3956 Random St,Houston,USA,37823
4880 Random St,New York,Germany,59197
922 Random St,Houston,UK,39614
2890 Random St,Los Angeles,USA,26198
1284 Random St,New York,UK,44121
1668 Random St,Phoenix,USA,28364
546 Random St,Los Angeles,Canada,22019
7185 Random St,Houston,Germany,67857
7070 Random St,Los Angeles,Mexico,56037
7655 Random St,Phoenix,USA,79789
2661 Random St,Los Angeles,Mexico,64525
2716 Random St,Chicago,Germany,22996
5877 Random St,Phoenix,UK,63548
2150 Random St,Houston,Canada,87309
4704 Random St,Los Angeles,Germany,49243
2969 Random St,Los Angeles,Canada,61785
3924 Random St,Chicago,Germany,52203
6632 Random St,Houston,Mexico,41592
8365 Random St,New York,USA,13118
8785 Random St,Houston,USA,51565
2726 Random St,Los Angeles,Mexico,26459
9389 Random St,Chicago,USA,37173
2815 Random St,Los Angeles,UK,86509
4120 Random St,Phoenix,Germany,62759
3402 Random St,New York,Canada,17315
1919 Random St,Chicago,USA,55991
4551 Random St,Los Angeles,Germany,52779
4448 Random St,New York,Germany,90871
1823 Random St,Phoenix,Canada,44958
3258 Random St,New York,Germany,65194
9674 Random St,Phoenix,Mexico,41024
1592 Random St,Phoenix,USA,32786
3565 Random St,Houston,Canada,72778
4256 Random St,Los Angeles,USA,42329
5579 Random St,Chicago,UK,81651
5917 Random St,Houston,USA,93790
5099 Random St,Chicago,Mexico,26376
2878 Random St,Los Angeles,Canada,55976
8769 Random St,Chicago,Mexico,82668
2062 Random St,New York,UK,46730
426 Random St,New York,Canada,56982
8060 Random St,New York,Mexico,68159
6332 Random St,Chicago,UK,86047
1205 Random St,Houston,Mexico,58125
4666 Random St,Phoenix,Germany,63383
7170 Random St,New York,UK,73224
8507 Random St,Chicago,Germany,49349
6315 Random St,New York,USA,60755
7843 Random St,Chicago,Germany,76078
9149 Random St,New York,UK,53951
5391 Random St,New York,Canada,65054
272 Random St,New York,USA,45353
4908 Random St,Los Angeles,USA,20775
3692 Random St,Los Angeles,Mexico,17407
5146 Random St,Phoenix,Mexico,51113
3080 Random St,Phoenix,Germany,65682
2007 Random St,Los Angeles,USA,68711
4919 Random St,Los Angeles,UK,75821
1552 Random St,Phoenix,USA,15135
7824 Random St,Phoenix,Canada,13227
854 Random St,Phoenix,USA,10355
6261 Random St,Houston,Canada,52785
317 Random St,New York,Mexico,95125
9215 Random St,Chicago,Germany,16219
9324 Random St,Phoenix,Canada,76961
3390 Random St,Phoenix,Mexico,54807
6350 Random St,Houston,UK,95682
2662 Random St,Phoenix,Canada,44602
3654 Random St,Phoenix,USA,46242
7017 Random St,Chicago,Mexico,87532
581 Random St,Houston,Canada,92817
8142 Random St,Phoenix,Germany,53333
4140 Random St,Chicago,Germany,23806
6316 Random St,Houston,UK,13770
5120 Random St,Chicago,Mexico,32328
1889 Random St,Chicago,Mexico,37313
4523 Random St,Houston,USA,54291
5327 Random St,Phoenix,UK,20948
8912 Random St,New York,UK,30527
9914 Random St,Houston,Mexico,54931
2759 Random St,New York,Mexico,24450
2784 Random St,Chicago,Mexico,12039
112 Random St,New York,Mexico,37811
4585 Random St,Phoenix,Germany,58403
4492 Random St,Los Angeles,Germany,64735
4519 Random St,Houston,Germany,36284
2122 Random St,Los Angeles,USA,11219
1905 Random St,Houston,UK,66124
3011 Random St,Los Angeles,Mexico,80141
5602 Random St,Houston,Canada,39557
845 Random St,Phoenix,USA,10809
9866 Random St,Phoenix,Mexico,72472
7685 Random St,Chicago,Canada,64450
1783 Random St,New York,UK,79926
6262 Random St,Phoenix,Canada,79699
3904 Random St,Phoenix,Mexico,50155
1082 Random St,Houston,USA,90766
6065 Random St,Los Angeles,Germany,90364
114 Random St,Phoenix,Mexico,66548
4142 Random St,Houston,USA,84604
9783 Random St,Chicago,Germany,79357
6298 Random St,Los Angeles,Germany,29049
1053 Random St,New York,UK,80059
8144 Random St,Phoenix,Canada,51319
3351 Random St,Houston,Mexico,90854
8687 Random St,Houston,Mexico,11158
7069 Random St,Houston,Mexico,91383
3560 Random St,Houston,Canada,31701
51 Random St,Chicago,Mexico,96224
8023 Random St,Phoenix,USA,14604
9839 Random St,Phoenix,Mexico,91109
998 Random St,Los Angeles,USA,55286
7194 Random St,Houston,Canada,58358
7811 Random St,New York,Mexico,95015
504 Random St,New York,USA,94267
9394 Random St,New York,UK,56504
6783 Random St,New York,Germany,29705
3320 Random St,Chicago,Canada,46359
3680 Random St,Chicago,Germany,85299
5447 Random St,Los Angeles,Canada,67809
2691 Random St,Houston,UK,54115
7558 Random St,Houston,Mexico,59388
3875 Random St,Los Angeles,UK,12301
2832 Random St,Los Angeles,USA,56614
6247 Random St,Chicago,UK,68782
6282 Random St,Phoenix,USA,92714
8641 Random St,Los Angeles,Mexico,26918
5017 Random St,Phoenix,Mexico,66239
7780 Random St,New York,USA,50469
7825 Random St,Phoenix,Mexico,75690
1938 Random St,Los Angeles,Mexico,87456
9714 Random St,Chicago,UK,85576
4974 Random St,New York,UK,69088
6719 Random St,New York,Germany,78177
5192 Random St,Phoenix,Mexico,74627
296 Random St,Los Angeles,UK,24205
4393 Random St,Chicago,UK,16211
3657 Random St,Chicago,Germany,66522
4745 Random St,Houston,Canada,89674
687 Random St,Phoenix,Mexico,91698
4713 Random St,Phoenix,Mexico,44225
5111 Random St,Phoenix,Canada,54387
8990 Random St,Los Angeles,Mexico,84286
1507 Random St,New York,Germany,73160
2636 Random St,New York,Mexico,71388
2237 Random St,Los Angeles,Canada,56134
1492 Random St,Los Angeles,Mexico,29656
1732 Random St,New York,Germany,81763
2616 Random St,Houston,Germany,88363
3174 Random St,Houston,UK,11215
1957 Random St,Houston,Canada,87368
3331 Random St,Chicago,USA,21163
6508 Random St,New York,Germany,47240
8379 Random St,New York,Germany,92166
8631 Random St,Houston,Germany,99696
2871 Random St,Chicago,Mexico,32607
394 Random St,New York,Mexico,20200
1371 Random St,New York,Canada,34446
6336 Random St,Houston,Germany,75333
6778 Random St,New York,UK,65016
5136 Random St,New York,Mexico,30103
5566 Random St,Los Angeles,USA,89145
1674 Random St,Los Angeles,UK,95832
9371 Random St,New York,Canada,98034
3022 Random St,Chicago,USA,15684
8897 Random St,Phoenix,UK,65024
2799 Random St,Chicago,USA,41631
6083 Random St,Phoenix,Germany,11684
3838 Random St,Chicago,Mexico,78391
1355 Random St,Chicago,Canada,46101
1139 Random St,Houston,Mexico,76230
5820 Random St,Chicago,Mexico,32346
4599 Random St,Phoenix,USA,85477
6461 Random St,Houston,UK,56094
9484 Random St,Phoenix,Germany,47353
6868 Random St,Houston,Germany,60245
7407 Random St,Chicago,UK,30827
8102 Random St,Chicago,Canada,22362
5990 Random St,Chicago,UK,20935
1658 Random St,Chicago,USA,46336
8537 Random St,Houston,Germany,97336
967 Random St,Los Angeles,Germany,88145
3257 Random St,Houston,UK,89136
2588 Random St,Phoenix,UK,85990
3633 Random St,Los Angeles,Mexico,69447
8600 Random St,Houston,Germany,18435
9459 Random St,Houston,Canada,29751
8884 Random St,Chicago,Mexico,21706
9023 Random St,Phoenix,UK,30662
1518 Random St,Phoenix,Canada,87888
2356 Random St,Houston,Canada,66097
6924 Random St,Los Angeles,Mexico,95400
7335 Random St,Los Angeles,Canada,31026
413 Random St,New York,Germany,58337
7979 Random St,New York,USA,42581
3262 Random St,Chicago,UK,39757
8368 Random St,New York,UK,67599
3026 Random St,Phoenix,UK,90832
4073 Random St,Los Angeles,Canada,15874
1116 Random St,Houston,Canada,34326
707 Random St,Los Angeles,Canada,56279
5968 Random St,Phoenix,Mexico,69074
8811 Random St,Chicago,Mexico,15732
8333 Random St,Houston,USA,84701
3315 Random St,Phoenix,UK,39175
2003 Random St,Houston,Germany,81485
9132 Random St,Chicago,USA,31032
4182 Random St,New York,Germany,35510
854 Random St,Chicago,Canada,33845
7608 Random St,New York,Germany,74419
6980 Random St,Phoenix,UK,78016
8717 Random St,Houston,Germany,33951
8328 Random St,New York,Canada,17623
522 Random St,Los Angeles,Canada,98661
2308 Random St,Houston,Germany,96098
6430 Random St,Phoenix,Germany,97689
284 Random St,Houston,Germany,32915
9131 Random St,Houston,Mexico,63635
9498 Random St,Chicago,Mexico,68284
4028 Random St,Phoenix,UK,89078
5044 Random St,Chicago,Mexico,62638
1321 Random St,Chicago,USA,41443
4239 Random St,Houston,Mexico,77672
9016 Random St,Chicago,UK,14628
6735 Random St,Chicago,Germany,15316
7018 Random St,New York,Germany,86108
9960 Random St,New York,UK,28568
1416 Random St,Phoenix,Canada,50986
9108 Random St,Houston,Mexico,90856
7771 Random St,Phoenix,UK,95160
7470 Random St,Chicago,Mexico,44745
5987 Random St,Los Angeles,Germany,29615
2523 Random St,New York,Germany,37971
3828 Random St,Phoenix,Germany,83664
8367 Random St,New York,USA,28016
3185 Random St,New York,Germany,46402
2292 Random St,Chicago,Germany,23338
7148 Random St,Phoenix,USA,72910
8447 Random St,Houston,UK,96092
6011 Random St,Houston,Mexico,41888
7150 Random St,Los Angeles,UK,55284
9847 Random St,Los Angeles,USA,32418
1802 Random St,Chicago,USA,10178
4690 Random St,Houston,Germany,80098
6 Random St,New York,Germany,55975
1438 Random St,Houston,UK,22710
3876 Random St,Los Angeles,UK,49929
8526 Random St,Chicago,Canada,94194
1944 Random St,New York,Mexico,61267
8135 Random St,New York,UK,92561
8630 Random St,New York,Mexico,70815
7458 Random St,Phoenix,Canada,96961
6343 Random St,Chicago,Canada,10739
1710 Random St,Phoenix,UK,51609
4922 Random St,Los Angeles,Canada,77965
3088 Random St,Phoenix,Mexico,36037
5248 Random St,New York,USA,77079
8830 Random St,Los Angeles,USA,92384
2739 Random St,Houston,Germany,41044
5784 Random St,Houston,Germany,79951
1255 Random St,Chicago,Germany,91950
7544 Random St,Chicago,UK,42767
1842 Random St,Chicago,Germany,45128
4409 Random St,Houston,Canada,16188
6382 Random St,Chicago,USA,63016
5324 Random St,Phoenix,Canada,50560
2569 Random St,New York,Canada,50298
7603 Random St,Houston,Canada,76079
9614 Random St,Houston,USA,53534
9607 Random St,New York,Canada,30875
5531 Random St,Chicago,UK,13291
8810 Random St,Houston,USA,81525
2786 Random St,Los Angeles,USA,96823
9753 Random St,Houston,Mexico,59906
232 Random St,Chicago,Mexico,59693
1823 Random St,Phoenix,USA,31839
6428 Random St,Chicago,Mexico,35440
6938 Random St,Chicago,Germany,32280
3148 Random St,Houston,Mexico,58350
8419 Random St,Phoenix,Canada,31826
7699 Random St,Los Angeles,USA,75306
6504 Random St,Phoenix,Mexico,43185
6428 Random St,Phoenix,Germany,12457
8793 Random St,New York,Germany,27133
3347 Random St,New York,USA,34918
4513 Random St,Phoenix,USA,72105
2546 Random St,Houston,UK,40212
2511 Random St,Phoenix,UK,69296
4201 Random St,Chicago,Germany,85535
4088 Random St,Los Angeles,UK,99964
5663 Random St,Houston,USA,64599
9753 Random St,New York,Germany,54716
222 Random St,New York,USA,42254
8525 Random St,Chicago,Canada,54476
2327 Random St,New York,UK,96357
3368 Random St,New York,Germany,63932
3270 Random St,New York,Canada,37895
215 Random St,Houston,Germany,94381
8399 Random St,Chicago,Mexico,51222
1237 Random St,Phoenix,USA,98386
8491 Random St,New York,Canada,72703
2099 Random St,New York,Germany,97176
5384 Random St,Houston,USA,27173
4564 Random St,New York,USA,26089
1394 Random St,Los Angeles,Canada,89189
5946 Random St,Chicago,Canada,28624
9447 Random St,Houston,Germany,27634
6136 Random St,Chicago,Mexico,66462
8428 Random St,Phoenix,UK,45531
5789 Random St,Houston,UK,74939
6983 Random St,New York,Germany,75916
9747 Random St,Phoenix,Mexico,59899
2403 Random St,Los Angeles,USA,20217
1989 Random St,Los Angeles,Mexico,12834
1694 Random St,New York,Canada,18821
6162 Random St,New York,Mexico,18487
7113 Random St,Phoenix,Mexico,66770
510 Random St,New York,Germany,27070
1641 Random St,Los Angeles,Germany,48321
5764 Random St,Houston,Mexico,68074
2525 Random St,Phoenix,UK,72823
9365 Random St,Chicago,Canada,97911
3692 Random St,Los Angeles,Canada,20824
3231 Random St,Houston,Germany,10830
2411 Random St,Houston,Mexico,85483
7633 Random St,Chicago,USA,11466
2722 Random St,Los Angeles,UK,93002
1326 Random St,Los Angeles,USA,77335
3363 Random St,Phoenix,USA,65559
6051 Random St,Phoenix,Mexico,16969
6103 Random St,Phoenix,Mexico,26571
7656 Random St,Houston,USA,80183
9089 Random St,New York,Canada,82027
7890 Random St,Chicago,Germany,74956
9866 Random St,Chicago,Mexico,59470
1269 Random St,Chicago,Mexico,40044
7203 Random St,New York,Mexico,31329
7336 Random St,New York,USA,83378
9063 Random St,Chicago,Germany,13804
4791 Random St,Houston,Canada,81175
5333 Random St,Los Angeles,Germany,72158
1806 Random St,Los Angeles,USA,40891
9142 Random St,New York,Mexico,36620
5442 Random St,New York,Canada,91643
9355 Random St,Houston,UK,55036
2813 Random St,Los Angeles,Canada,16728
1250 Random St,New York,USA,66609
5693 Random St,Los Angeles,Mexico,48663
3496 Random St,Houston,USA,75431
2703 Random St,Los Angeles,USA,99944
4520 Random St,Chicago,Canada,43591
1694 Random St,Phoenix,Canada,51074
4312 Random St,Phoenix,Mexico,22411
9755 Random St,Chicago,USA,54086
9879 Random St,Los Angeles,Mexico,31027
6810 Random St,Phoenix,Germany,94295
5439 Random St,Houston,Mexico,40709
8189 Random St,Los Angeles,Canada,88749
565 Random St,Los Angeles,Canada,38643
1992 Random St,Chicago,Mexico,11663
5865 Random St,Chicago,Germany,31010
5448 Random St,Chicago,Mexico,47814
1647 Random St,Houston,Mexico,53882
8514 Random St,Chicago,Mexico,70675
1664 Random St,New York,Canada,14040
2326 Random St,Chicago,Canada,83414
6795 Random St,New York,UK,89174
5723 Random St,Phoenix,Canada,48400
7584 Random St,Houston,UK,92941
9318 Random St,Chicago,Mexico,50079
4685 Random St,Chicago,UK,10256
8333 Random St,Phoenix,USA,37770
1864 Random St,Chicago,Mexico,21882
448 Random St,Los Angeles,UK,32248
8485 Random St,Houston,UK,47274
1460 Random St,Phoenix,Canada,24642
3464 Random St,Phoenix,USA,94286
5370 Random St,New York,Canada,67492
3256 Random St,Chicago,UK,67268
2318 Random St,Los Angeles,UK,23887
3531 Random St,Houston,USA,64516
3540 Random St,Phoenix,Germany,57059
1690 Random St,Los Angeles,Canada,64259
4660 Random St,Phoenix,Mexico,93616
9408 Random St,Phoenix,Mexico,44333
1610 Random St,Los Angeles,USA,78081
2935 Random St,Houston,Canada,23495
6094 Random St,New York,Germany,81579
2847 Random St,Houston,Canada,96968
6191 Random St,Phoenix,USA,42086
2565 Random St,New York,USA,84130
6863 Random St,New York,USA,39467
4705 Random St,New York,UK,19041
538 Random St,New York,Germany,80262
9297 Random St,New York,USA,44876
3324 Random St,Phoenix,Canada,36686
8811 Random St,New York,Mexico,81968
674 Random St,New York,Germany,65083
1040 Random St,Houston,Canada,88286
1894 Random St,Chicago,Germany,54209
5596 Random St,Houston,Mexico,91627
794 Random St,Phoenix,USA,93862
1575 Random St,Chicago,UK,33663
1388 Random St,Los Angeles,Germany,80542
8681 Random St,New York,Germany,98925
8471 Random St,Chicago,Canada,70508
2079 Random St,Houston,UK,66078
5933 Random St,Los Angeles,Germany,55908
4735 Random St,New York,Mexico,90503
5689 Random St,Los Angeles,Germany,60386
6371 Random St,Los Angeles,Germany,88423
9149 Random St,Houston,Germany,96772
4525 Random St,Houston,UK,83620
1590 Random St,Houston,USA,14227
1078 Random St,Los Angeles,UK,80521
2745 Random St,Houston,UK,14753
5468 Random St,Phoenix,Germany,38793
6336 Random St,Phoenix,Canada,93703
7773 Random St,New York,Canada,17957
4394 Random St,New York,UK,59107
1076 Random St,Chicago,USA,58281
6632 Random St,Phoenix,Canada,38208
877 Random St,Chicago,Mexico,42915
721 Random St,Houston,Mexico,20930
5014 Random St,Chicago,UK,17731
1379 Random St,New York,Canada,45822
7385 Random St,Chicago,Germany,26592
4959 Random St,Houston,Mexico,66727
5639 Random St,New York,Canada,33655
5566 Random St,Chicago,UK,64258
955 Random St,Chicago,Germany,30060
9569 Random St,Chicago,UK,58764
2104 Random St,Chicago,UK,14883
7726 Random St,Chicago,Mexico,47297
3947 Random St,New York,Mexico,51018
9381 Random St,New York,Mexico,70705
7151 Random St,Los Angeles,Canada,22228
6636 Random St,New York,Mexico,91177
1596 Random St,Houston,Germany,40598
854 Random St,New York,Mexico,14621
4574 Random St,Phoenix,USA,56419
7449 Random St,Chicago,Canada,66319
7019 Random St,Houston,USA,20395
5760 Random St,Houston,USA,29092
6464 Random St,Houston,UK,70662
7709 Random St,Phoenix,Mexico,60941
1570 Random St,New York,Canada,77718
1775 Random St,Chicago,Mexico,21100
5238 Random St,Phoenix,Mexico,74953
6710 Random St,Chicago,Canada,21390
9462 Random St,New York,Canada,30014
6963 Random St,New York,Mexico,80083
3197 Random St,Phoenix,Germany,36891
4435 Random St,Phoenix,UK,42989
1511 Random St,Los Angeles,Canada,75136
7042 Random St,Los Angeles,USA,16816
7800 Random St,Phoenix,USA,63868
9425 Random St,Chicago,USA,43313
4994 Random St,Los Angeles,Germany,10174
1296 Random St,Houston,Canada,41126
6822 Random St,Houston,Canada,85606
6534 Random St,Los Angeles,USA,89662
8020 Random St,Houston,Mexico,96299
6798 Random St,Chicago,Mexico,66937
4609 Random St,Los Angeles,Germany,57323
9619 Random St,Houston,Canada,80014
4753 Random St,Los Angeles,USA,63981
8988 Random St,Phoenix,Mexico,49181
6364 Random St,Chicago,Mexico,31300
32 Random St,Los Angeles,Germany,13753
1564 Random St,New York,Germany,59981
333 Random St,Chicago,USA,28412
3690 Random St,Los Angeles,Germany,37748
8030 Random St,Los Angeles,USA,80082
296 Random St,Chicago,USA,90384
6042 Random St,New York,USA,19663
3419 Random St,Phoenix,USA,46980
4167 Random St,New York,Germany,15703
1409 Random St,Phoenix,Canada,28377
5231 Random St,Los Angeles,USA,32164
2127 Random St,Chicago,Canada,14179
5029 Random St,Houston,Germany,69296
9130 Random St,Houston,UK,87582
5877 Random St,Phoenix,Canada,84716
499 Random St,New York,Germany,45728
2924 Random St,New York,Mexico,36853
272 Random St,Houston,Germany,51951
6254 Random St,Los Angeles,Canada,95001
5525 Random St,Los Angeles,UK,51613
4581 Random St,Phoenix,Mexico,89594
1705 Random St,Los Angeles,Mexico,95540
202 Random St,New York,Canada,90166
7627 Random St,New York,Canada,80746
5961 Random St,Chicago,Mexico,11702
9752 Random St,New York,Germany,86404
9414 Random St,Los Angeles,UK,48191
4114 Random St,Phoenix,UK,90687
7784 Random St,Phoenix,Canada,62649
6849 Random St,Chicago,UK,86091
1956 Random St,Phoenix,Germany,57709
5927 Random St,Chicago,UK,96944
2042 Random St,Phoenix,Germany,22984
3181 Random St,Los Angeles,UK,19977
2391 Random St,Los Angeles,Canada,78169
3243 Random St,Phoenix,Mexico,95871
9216 Random St,New York,Canada,99139
1422 Random St,Chicago,USA,50902
3762 Random St,New York,Mexico,99074
5818 Random St,New York,Germany,25238
4737 Random St,New York,Germany,60053
4868 Random St,New York,Canada,94955
8207 Random St,New York,Germany,52152
532 Random St,New York,UK,21385
2935 Random St,Chicago,USA,28553
741 Random St,Los Angeles,Mexico,13849
6619 Random St,Houston,USA,71640
8814 Random St,Phoenix,UK,31169
5039 Random St,Houston,UK,10819
1502 Random St,Phoenix,Canada,74431
5621 Random St,Los Angeles,Canada,93671
3156 Random St,Houston,Canada,51184
4637 Random St,Chicago,Canada,42310
9547 Random St,New York,Canada,92565
8514 Random St,Los Angeles,USA,24162
4243 Random St,Houston,Germany,27062
7235 Random St,New York,UK,74218
6753 Random St,New York,Germany,66143
103 Random St,Houston,Mexico,89688
2736 Random St,Houston,USA,19529
7295 Random St,Phoenix,UK,22969
9919 Random St,Los Angeles,USA,37517
2386 Random St,Phoenix,UK,91944
3566 Random St,Los Angeles,USA,66893
3077 Random St,New York,Germany,33784
498 Random St,Phoenix,Germany,28426
4779 Random St,Chicago,Mexico,22800
3738 Random St,Phoenix,Canada,94755
76 Random St,New York,Canada,28050
1143 Random St,Los Angeles,USA,91623
4855 Random St,Phoenix,Canada,79050
644 Random St,New York,Mexico,33470
5305 Random St,Los Angeles,UK,80408
1325 Random St,Houston,Germany,58318
7219 Random St,Phoenix,UK,59588
3777 Random St,Houston,Germany,87531
5498 Random St,Chicago,Mexico,98276
7695 Random St,Chicago,Canada,46034
8224 Random St,Los Angeles,USA,79193
2157 Random St,Houston,UK,11584
88 Random St,New York,Mexico,30924
6562 Random St,Los Angeles,UK,91064
92 Random St,Los Angeles,USA,76143
125 Random St,Houston,USA,44302
349 Random St,Chicago,Mexico,56640
2798 Random St,Chicago,Germany,30360
4359 Random St,Chicago,Germany,83689
9079 Random St,Los Angeles,Germany,82498
5368 Random St,Phoenix,Canada,64572
8099 Random St,Phoenix,Canada,31398
1585 Random St,Houston,Canada,50355
3546 Random St,Phoenix,Canada,50984
2026 Random St,Chicago,Mexico,15809
5353 Random St,Houston,Mexico,69214
622 Random St,Houston,Germany,54609
847 Random St,New York,UK,75756
1642 Random St,Los Angeles,UK,75748
633 Random St,New York,Germany,43247
9591 Random St,Phoenix,Canada,78130
6536 Random St,Chicago,USA,28756
4926 Random St,Houston,Germany,37563
3097 Random St,Los Angeles,USA,77154
9468 Random St,Los Angeles,USA,73755
4958 Random St,Chicago,UK,68181
6064 Random St,Los Angeles,UK,87974
3330 Random St,Los Angeles,Mexico,82989
9232 Random St,Los Angeles,UK,70738
2195 Random St,New York,Mexico,74540
3284 Random St,Phoenix,Canada,72380
9037 Random St,Los Angeles,USA,61348
2379 Random St,Phoenix,Mexico,67732
864 Random St,Los Angeles,UK,41316
8641 Random St,Chicago,USA,27799
43 Random St,New York,Germany,60013
9801 Random St,Los Angeles,UK,81139
4984 Random St,Los Angeles,Mexico,95966
3050 Random St,New York,Mexico,36101
8914 Random St,Phoenix,USA,17963
4930 Random St,Phoenix,Canada,71100
4397 Random St,Phoenix,Canada,10012
9974 Random St,Phoenix,UK,74249
2405 Random St,New York,Germany,36864
4471 Random St,Phoenix,USA,25492
7500 Random St,New York,UK,86116
1175 Random St,Chicago,Germany,34068
9351 Random St,Chicago,Mexico,33282
4291 Random St,Los Angeles,Mexico,29906
3068 Random St,New York,Canada,34209
2973 Random St,Houston,Canada,16966
9377 Random St,Chicago,Germany,41831
7178 Random St,Chicago,Germany,76079
8806 Random St,Phoenix,UK,34873
2731 Random St,Phoenix,Canada,14837
3911 Random St,New York,Mexico,25155
5146 Random St,Chicago,USA,26913
1185 Random St,Phoenix,Germany,13984
6637 Random St,Phoenix,UK,98643
6832 Random St,Phoenix,UK,86302
224 Random St,Houston,UK,67010
7440 Random St,New York,Mexico,64219
8260 Random St,Phoenix,Mexico,53243
8628 Random St,Chicago,USA,21015
625 Random St,Los Angeles,Mexico,89688
9669 Random St,Chicago,UK,34419
6903 Random St,Phoenix,Canada,19133
3622 Random St,Chicago,USA,53543
2057 Random St,Chicago,Germany,17532
9381 Random St,Los Angeles,Germany,32990
7622 Random St,New York,UK,58018
5592 Random St,Phoenix,Germany,73461
2042 Random St,Chicago,Mexico,68299
7809 Random St,New York,USA,15257
5757 Random St,Houston,Germany,14734
6541 Random St,Phoenix,USA,17114
1022 Random St,Houston,Mexico,44770
4682 Random St,New York,UK,43899
2739 Random St,Phoenix,USA,43128
8050 Random St,Chicago,USA,76255
7372 Random St,Chicago,Mexico,73463
5980 Random St,Chicago,USA,69493
8263 Random St,Los Angeles,Canada,11868
2721 Random St,Phoenix,Germany,30215
7584 Random St,Houston,UK,54462
7211 Random St,Houston,UK,66690
9619 Random St,New York,USA,32133
7355 Random St,Chicago,USA,24358
243 Random St,Chicago,Germany,84818
6572 Random St,New York,Mexico,51010
3208 Random St,Chicago,UK,42576
155 Random St,Houston,Canada,43084
2008 Random St,New York,USA,90723
1584 Random St,Chicago,Mexico,57135
7022 Random St,Houston,Canada,37465
8603 Random St,Los Angeles,Germany,44545
305 Random St,Chicago,Canada,70699
103 Random St,Chicago,Germany,26730
7936 Random St,Chicago,USA,87368
9835 Random St,Phoenix,UK,21828
3037 Random St,New York,Germany,77727
9242 Random St,Houston,Mexico,22821
1548 Random St,Los Angeles,UK,15391
2892 Random St,Houston,UK,66241
9898 Random St,Phoenix,Germany,62710
675 Random St,Chicago,UK,60916
9807 Random St,Chicago,Germany,38830
5591 Random St,Chicago,USA,74719
2247 Random St,Phoenix,Germany,30353
9764 Random St,New York,UK,95206
8935 Random St,New York,Mexico,29201
5281 Random St,Phoenix,USA,70230
2183 Random St,Chicago,Mexico,34024
2222 Random St,New York,UK,56893
5130 Random St,New York,Mexico,34082
4729 Random St,Los Angeles,Germany,33173
6699 Random St,Los Angeles,Canada,74442
8531 Random St,New York,Mexico,21411
7252 Random St,Los Angeles,UK,28153
409 Random St,Chicago,Canada,14526
6308 Random St,Los Angeles,UK,14215
2503 Random St,Los Angeles,Mexico,77359
5236 Random St,Houston,Mexico,67632
6122 Random St,New York,USA,59873
560 Random St,Chicago,Canada,47523
4064 Random St,Phoenix,Mexico,62900
3982 Random St,Los Angeles,Mexico,91552
6008 Random St,New York,UK,88072
8592 Random St,Chicago,Canada,98868
9422 Random St,Phoenix,Germany,71724
8414 Random St,Phoenix,USA,54343
3631 Random St,Chicago,UK,27907
7674 Random St,Houston,USA,39300
8536 Random St,New York,Mexico,11346
113 Random St,Phoenix,Canada,61466
4219 Random St,Los Angeles,USA,57053
5965 Random St,Phoenix,USA,40402
9495 Random St,Houston,UK,91283
4337 Random St,Phoenix,Mexico,12887
1106 Random St,Chicago,Canada,86188
2968 Random St,New York,Germany,82809
6345 Random St,Los Angeles,UK,46842
1456 Random St,Los Angeles,Germany,56829
6307 Random St,New York,Mexico,46099
3095 Random St,Houston,USA,84238
1004 Random St,Chicago,Germany,85312
8117 Random St,Chicago,UK,75749
1659 Random St,Los Angeles,USA,51412
3179 Random St,Phoenix,UK,15073
3293 Random St,Houston,Germany,79531
8900 Random St,Houston,Mexico,68374
1731 Random St,Chicago,Mexico,18778
4544 Random St,Chicago,Mexico,22544
5953 Random St,New York,Canada,98962
7957 Random St,Chicago,Canada,48746
4668 Random St,Phoenix,Germany,88200
7763 Random St,Phoenix,USA,10481
4142 Random St,Houston,Mexico,89356
3994 Random St,New York,Mexico,55382
5489 Random St,Phoenix,UK,65447
2360 Random St,Houston,Germany,36080
4171 Random St,New York,Germany,70514
5354 Random St,Chicago,Canada,77178
5967 Random St,Los Angeles,USA,37270
9371 Random St,Houston,USA,70556
4343 Random St,Houston,Mexico,71178
8777 Random St,Phoenix,Canada,43719
7081 Random St,New York,UK,51029
5836 Random St,Houston,Canada,25464
9872 Random St,Chicago,Canada,54513
4631 Random St,Chicago,USA,82124
3712 Random St,New York,USA,93514
6538 Random St,New York,Mexico,18054
9029 Random St,Los Angeles,USA,81310
2840 Random St,Phoenix,Mexico,62888
5757 Random St,Chicago,Mexico,28563
8120 Random St,Chicago,Germany,16572
7924 Random St,Los Angeles,UK,18898
9621 Random St,Chicago,Mexico,56003
8933 Random St,Chicago,Canada,55756
8619 Random St,New York,Canada,71420
3100 Random St,New York,Mexico,24963
4203 Random St,Chicago,USA,96120
7620 Random St,Los Angeles,Germany,50309
7332 Random St,Los Angeles,Mexico,28753
7782 Random St,Chicago,UK,29875
1132 Random St,Chicago,Mexico,16420
642 Random St,Los Angeles,Canada,78439
1064 Random St,Houston,Canada,67571
7982 Random St,New York,USA,24234
3241 Random St,Phoenix,Canada,82128
2673 Random St,Phoenix,Germany,37977
2521 Random St,Houston,Canada,78252
7169 Random St,Houston,Germany,99849
979 Random St,Chicago,Germany,63777
8058 Random St,Phoenix,Mexico,74183
9585 Random St,Houston,Germany,27525
9480 Random St,New York,UK,88490
3867 Random St,Phoenix,UK,11935
9463 Random St,Houston,USA,32294
6269 Random St,Los Angeles,UK,92887
9284 Random St,Houston,Mexico,13224
3958 Random St,Phoenix,Mexico,70760
6022 Random St,Phoenix,Mexico,53918
1382 Random St,Phoenix,Germany,18034
2042 Random St,Los Angeles,Germany,78465
7819 Random St,Chicago,USA,79296
8504 Random St,Phoenix,Mexico,60453
7726 Random St,Chicago,Mexico,43084
375 Random St,New York,Germany,64846
2760 Random St,Los Angeles,Canada,20828
5701 Random St,Los Angeles,UK,54309
4325 Random St,New York,USA,23575
1792 Random St,Chicago,Mexico,23149
1064 Random St,Los Angeles,UK,26793
1573 Random St,Chicago,USA,33727
728 Random St,New York,UK,75736
3612 Random St,Chicago,Canada,15257
8715 Random St,Chicago,Canada,60122
699 Random St,Los Angeles,Mexico,56475
6744 Random St,Houston,UK,91018
914 Random St,Los Angeles,Mexico,45708
7407 Random St,Los Angeles,USA,55066
1528 Random St,Houston,Canada,82646
5597 Random St,Phoenix,Canada,12940
115 Random St,New York,USA,12891
4206 Random St,Los Angeles,UK,19165
7284 Random St,Los Angeles,Germany,41002
531 Random St,Los Angeles,UK,58105
9789 Random St,New York,Canada,14091
6602 Random St,New York,UK,32112
4382 Random St,New York,USA,81073
1910 Random St,Los Angeles,UK,26991
7528 Random St,Chicago,UK,15900
2370 Random St,Chicago,UK,26314
9908 Random St,Chicago,Mexico,90631
9549 Random St,Chicago,UK,93520
875 Random St,New York,Mexico,45447
9971 Random St,New York,Mexico,16331
4387 Random St,New York,Germany,37753
9610 Random St,New York,UK,72858
7019 Random St,Chicago,Mexico,99838
1396 Random St,Chicago,USA,97134
5710 Random St,Chicago,UK,41397
4098 Random St,New York,Germany,52512
7516 Random St,Phoenix,USA,45211
5870 Random St,Chicago,Germany,15958
3632 Random St,Phoenix,UK,88025
6212 Random St,Houston,Canada,20115
4653 Random St,Houston,Canada,77029
5112 Random St,Los Angeles,Canada,20650
5432 Random St,Los Angeles,Germany,51846
8048 Random St,Chicago,Germany,90010
2249 Random St,Chicago,USA,12012
5067 Random St,Phoenix,UK,80894
1556 Random St,Phoenix,Germany,66100
7668 Random St,Los Angeles,UK,65324
2381 Random St,Phoenix,Mexico,55926
8434 Random St,Phoenix,UK,76068
2706 Random St,New York,Germany,90084
7552 Random St,New York,USA,72583
7364 Random St,Houston,USA,87703
